[{"OBJECT_NAME":"HAWK-11B","OBJECT_ID":"2024-247C","EPOCH":"2026-03-09T10:44:06.809856","MEAN_MOTION":15.2884707,"ECCENTRICITY":0.00046902,"INCLINATION":45.0161,"RA_OF_ASC_NODE":115.761,"ARG_OF_PERICENTER":333.0326,"MEAN_ANOMALY":27.0314,"EPHEMERIS_TYPE":0,"CLASSIFICATION_TYPE":"U","NORAD_CAT_ID":62379,"ELEMENT_SET_NO":999,"REV_AT_EPOCH":6773,"BSTAR":0.00032841927,"MEAN_MOTION_DOT":9.093e-5,"MEAN_MOTION_DDOT":0},{"OBJECT_NAME":"STARLINK-35219","OBJECT_ID":"2025-259X","EPOCH":"2026-03-09T22:20:03.897888","MEAN_MOTION":15.27597707,"ECCENTRICITY":0.00013388,"INCLINATION":43.0001,"RA_OF_ASC_NODE":273.3686,"ARG_OF_PERICENTER":262.6783,"MEAN_ANOMALY":97.3916,"EPHEMERIS_TYPE":0,"CLASSIFICATION_TYPE":"U","NORAD_CAT_ID":66443,"ELEMENT_SET_NO":999,"REV_AT_EPOCH":1941,"BSTAR":0.00093406407,"MEAN_MOTION_DOT":0.00025544,"MEAN_MOTION_DDOT":0}]
